[
    {
        "Altitude(m)": 554405.4546715118,
        "Argument of Periapsis(deg)": 0.0,
        "Eccentricity": 0.0,
        "Inclination(deg)": 53.0,
        "Latitude(deg)": 25.65230092347671,
        "Longitude(deg)": 6.125162337197817,
        "Mean Anomaly(deg)": 32.72730000000001,
        "RAAN(deg)": 85.00000000000001,
        "Satellite Name": "Starlink Shell 1 376",
        "Satellite Number": 376,
        "Semi-Major Axis(m)": 6931778.249405717,
        "Time(s)": 0
    },
    {
        "Altitude(m)": 554467.1357614661,
        "Argument of Periapsis(deg)": 0.00034857847951123687,
        "Eccentricity": 0.0,
        "Inclination(deg)": 53.0,
        "Latitude(deg)": 26.12103059999844,
        "Longitude(deg)": 6.548780996645076,
        "Mean Anomaly(deg)": 33.35413120355672,
        "RAAN(deg)": 84.99948122992254,
        "Satellite Name": "Starlink Shell 1 376",
        "Satellite Number": 376,
        "Semi-Major Axis(m)": 6931778.249405717,
        "Time(s)": 10
    },
    {
        "Altitude(m)": 554530.3165584019,
        "Argument of Periapsis(deg)": 0.0006971569590224737,
        "Eccentricity": 0.0,
        "Inclination(deg)": 53.0,
        "Latitude(deg)": 26.588219382414042,
        "Longitude(deg)": 6.9761153162834395,
        "Mean Anomaly(deg)": 33.98096240711342,
        "RAAN(deg)": 84.99896245984506,
        "Satellite Name": "Starlink Shell 1 376",
        "Satellite Number": 376,
        "Semi-Major Axis(m)": 6931778.249405717,
        "Time(s)": 20
    },
    {
        "Altitude(m)": 554594.9469253763,
        "Argument of Periapsis(deg)": 0.0010457354385337105,
        "Eccentricity": 0.0,
        "Inclination(deg)": 53.0,
        "Latitude(deg)": 27.053823411291585,
        "Longitude(deg)": 7.4072599548996445,
        "Mean Anomaly(deg)": 34.60779361067015,
        "RAAN(deg)": 84.9984436897676,
        "Satellite Name": "Starlink Shell 1 376",
        "Satellite Number": 376,
        "Semi-Major Axis(m)": 6931778.249405717,
        "Time(s)": 30
    },
    {
        "Altitude(m)": 554660.9761793625,
        "Argument of Periapsis(deg)": 0.0013943139180449475,
        "Eccentricity": 0.0,
        "Inclination(deg)": 53.0,
        "Latitude(deg)": 27.51779788293178,
        "Longitude(deg)": 7.842311385402757,
        "Mean Anomaly(deg)": 35.234624814226855,
        "RAAN(deg)": 84.99792491969012,
        "Satellite Name": "Starlink Shell 1 376",
        "Satellite Number": 376,
        "Semi-Major Axis(m)": 6931778.249405717,
        "Time(s)": 40
    },
    {
        "Altitude(m)": 554728.3531183772,
        "Argument of Periapsis(deg)": 0.0017428923975561844,
        "Eccentricity": 0.0,
        "Inclination(deg)": 53.0,
        "Latitude(deg)": 27.980097020676407,
        "Longitude(deg)": 8.281366893215484,
        "Mean Anomaly(deg)": 35.86145601778358,
        "RAAN(deg)": 84.99740614961264,
        "Satellite Name": "Starlink Shell 1 376",
        "Satellite Number": 376,
        "Semi-Major Axis(m)": 6931778.249405717,
        "Time(s)": 50
    },
    {
        "Altitude(m)": 554797.0260488008,
        "Argument of Periapsis(deg)": 0.002091470877067421,
        "Eccentricity": 0.0,
        "Inclination(deg)": 53.0,
        "Latitude(deg)": 28.440674045719394,
        "Longitude(deg)": 8.724525085116982,
        "Mean Anomaly(deg)": 36.488287221340286,
        "RAAN(deg)": 84.99688737953518,
        "Satellite Name": "Starlink Shell 1 376",
        "Satellite Number": 376,
        "Semi-Major Axis(m)": 6931778.249405717,
        "Time(s)": 60
    },
    {
        "Altitude(m)": 554866.9428129038,
        "Argument of Periapsis(deg)": 0.0024400493565786582,
        "Eccentricity": 0.0,
        "Inclination(deg)": 53.0,
        "Latitude(deg)": 28.899481147431505,
        "Longitude(deg)": 9.171886395444162,
        "Mean Anomaly(deg)": 37.115118424897,
        "RAAN(deg)": 84.99636860945769,
        "Satellite Name": "Starlink Shell 1 376",
        "Satellite Number": 376,
        "Semi-Major Axis(m)": 6931778.249405717,
        "Time(s)": 70
    },
    {
        "Altitude(m)": 554938.0508165774,
        "Argument of Periapsis(deg)": 0.002788627836089895,
        "Eccentricity": 0.0,
        "Inclination(deg)": 53.0,
        "Latitude(deg)": 29.35646945321323,
        "Longitude(deg)": 9.623552076542321,
        "Mean Anomaly(deg)": 37.74194962845372,
        "RAAN(deg)": 84.99584983938023,
        "Satellite Name": "Starlink Shell 1 376",
        "Satellite Number": 376,
        "Semi-Major Axis(m)": 6931778.249405717,
        "Time(s)": 80
    },
    {
        "Altitude(m)": 555010.2970572308,
        "Argument of Periapsis(deg)": 0.0031372063156011316,
        "Eccentricity": 0.0,
        "Inclination(deg)": 53.0,
        "Latitude(deg)": 29.811588997901417,
        "Longitude(deg)": 10.079624698960286,
        "Mean Anomaly(deg)": 38.368780832010444,
        "RAAN(deg)": 84.99533106930275,
        "Satellite Name": "Starlink Shell 1 376",
        "Satellite Number": 376,
        "Semi-Major Axis(m)": 6931778.249405717,
        "Time(s)": 90
    },
    {
        "Altitude(m)": 555083.6281518206,
        "Argument of Periapsis(deg)": 0.0034857847951123688,
        "Eccentricity": 0.0,
        "Inclination(deg)": 53.0,
        "Latitude(deg)": 30.264788692751928,
        "Longitude(deg)": 10.54020864825128,
        "Mean Anomaly(deg)": 38.995612035567156,
        "RAAN(deg)": 84.99481229922527,
        "Satellite Name": "Starlink Shell 1 376",
        "Satellite Number": 376,
        "Semi-Major Axis(m)": 6931778.249405717,
        "Time(s)": 100
    },
    {
        "Altitude(m)": 555157.9903650752,
        "Argument of Periapsis(deg)": 0.003834363274623606,
        "Eccentricity": 0.0,
        "Inclination(deg)": 53.0,
        "Latitude(deg)": 30.716016294023447,
        "Longitude(deg)": 11.005409105219998,
        "Mean Anomaly(deg)": 39.622443239123854,
        "RAAN(deg)": 84.99429352914781,
        "Satellite Name": "Starlink Shell 1 376",
        "Satellite Number": 376,
        "Semi-Major Axis(m)": 6931778.249405717,
        "Time(s)": 110
    },
    {
        "Altitude(m)": 555233.3296378157,
        "Argument of Periapsis(deg)": 0.004182941754134842,
        "Eccentricity": 0.0,
        "Inclination(deg)": 53.0,
        "Latitude(deg)": 31.165218371200876,
        "Longitude(deg)": 11.475332535062662,
        "Mean Anomaly(deg)": 40.24927444268056,
        "RAAN(deg)": 84.99377475907033,
        "Satellite Name": "Starlink Shell 1 376",
        "Satellite Number": 376,
        "Semi-Major Axis(m)": 6931778.249405717,
        "Time(s)": 120
    },
    {
        "Altitude(m)": 555309.591615378,
        "Argument of Periapsis(deg)": 0.004531520233646079,
        "Eccentricity": 0.0,
        "Inclination(deg)": 53.0,
        "Latitude(deg)": 31.612340274893672,
        "Longitude(deg)": 11.950087172206265,
        "Mean Anomaly(deg)": 40.87610564623729,
        "RAAN(deg)": 84.99325598899286,
        "Satellite Name": "Starlink Shell 1 376",
        "Satellite Number": 376,
        "Semi-Major Axis(m)": 6931778.249405717,
        "Time(s)": 130
    },
    {
        "Altitude(m)": 555386.7216761805,
        "Argument of Periapsis(deg)": 0.0048800987131573164,
        "Eccentricity": 0.0,
        "Inclination(deg)": 53.0,
        "Latitude(deg)": 32.057326104448734,
        "Longitude(deg)": 12.4297819876355,
        "Mean Anomaly(deg)": 41.50293684979402,
        "RAAN(deg)": 84.9927372189154,
        "Satellite Name": "Starlink Shell 1 376",
        "Satellite Number": 376,
        "Semi-Major Axis(m)": 6931778.249405717,
        "Time(s)": 140
    },
    {
        "Altitude(m)": 555464.6649603462,
        "Argument of Periapsis(deg)": 0.005228677192668553,
        "Eccentricity": 0.0,
        "Inclination(deg)": 53.0,
        "Latitude(deg)": 32.500118675332125,
        "Longitude(deg)": 12.914527164096503,
        "Mean Anomaly(deg)": 42.12976805335072,
        "RAAN(deg)": 84.99221844883792,
        "Satellite Name": "Starlink Shell 1 376",
        "Satellite Number": 376,
        "Semi-Major Axis(m)": 6931778.249405717,
        "Time(s)": 150
    },
    {
        "Altitude(m)": 555543.3663983975,
        "Argument of Periapsis(deg)": 0.00557725567217979,
        "Eccentricity": 0.0,
        "Inclination(deg)": 53.0,
        "Latitude(deg)": 32.94065948633208,
        "Longitude(deg)": 13.404434565927229,
        "Mean Anomaly(deg)": 42.756599256907435,
        "RAAN(deg)": 84.99169967876044,
        "Satellite Name": "Starlink Shell 1 376",
        "Satellite Number": 376,
        "Semi-Major Axis(m)": 6931778.249405717,
        "Time(s)": 160
    },
    {
        "Altitude(m)": 555622.7707400322,
        "Argument of Periapsis(deg)": 0.0059258341516910265,
        "Eccentricity": 0.0,
        "Inclination(deg)": 53.0,
        "Latitude(deg)": 33.378888686640714,
        "Longitude(deg)": 13.89961669024339,
        "Mean Anomaly(deg)": 43.383430460464155,
        "RAAN(deg)": 84.99118090868298,
        "Satellite Name": "Starlink Shell 1 376",
        "Satellite Number": 376,
        "Semi-Major Axis(m)": 6931778.249405717,
        "Time(s)": 170
    },
    {
        "Altitude(m)": 555702.8225829129,
        "Argument of Periapsis(deg)": 0.006274412631202263,
        "Eccentricity": 0.0,
        "Inclination(deg)": 53.0,
        "Latitude(deg)": 33.81474504288918,
        "Longitude(deg)": 14.400187124809618,
        "Mean Anomaly(deg)": 44.01026166402089,
        "RAAN(deg)": 84.9906621386055,
        "Satellite Name": "Starlink Shell 1 376",
        "Satellite Number": 376,
        "Semi-Major Axis(m)": 6931778.249405717,
        "Time(s)": 180
    }
]